COSMOS 2251 DEB
1 34970U 93036AEZ 19125.45829264  .00006138  00000-0  39916-3 0  9991
2 34970  73.9912 299.9788 0018605 302.0655  57.8728 15.08070887542191
COSMOS 2251 DEB
1 34971U 93036AFA 19128.50166847  .00000075  00000-0  25618-4 0  9991
2 34971  73.9789 167.5023 0075917 239.5540 190.2025 14.51695615534318
COSMOS 2251 DEB
1 34972U 93036AFB 19128.89573891  .00000557  00000-0  16133-3 0  9991
2 34972  73.9961 285.2876 0054678 294.5404 219.6280 14.46051452527619
COSMOS 2251 DEB
1 34976U 93036AFF 19128.69586466  .00000382  00000-0  94035-4 0  9999
2 34976  74.0668 216.4865 0067531 176.8314 335.1004 14.54377454531487
COSMOS 2251 DEB
1 34977U 93036AFG 19129.20358588  .00001203  00000-0  31958-3 0  9997
2 34977  74.0278 320.0892 0054382 271.4772  88.0159 14.48880854526785
COSMOS 2251 DEB
1 34978U 93036AFH 19128.85728405  .00001672  00000-0  24605-3 0  9998
2 34978  74.0253  70.8550 0039250 100.0671 260.4934 14.75756134533971
COSMOS 2251 DEB
1 34979U 93036AFJ 19129.25451999  .00000384  00000-0  91694-4 0  9997
2 34979  74.0475 193.2264 0073466 171.9714 188.2645 14.55599460530295
IRIDIUM 33 DEB
1 34983U 97051NP  19129.28673392  .00003431  00000-0  60075-3 0  9993
2 34983  86.3592 327.5459 0034663 321.4255  38.4482 14.67167600530387
IRIDIUM 33 DEB
1 34985U 97051NR  19129.39356661  .00000327  00000-0  10928-3 0  9997
2 34985  86.3735 354.5175 0023086 187.6238 294.8228 14.34245854526151
IRIDIUM 33 DEB
1 34986U 97051NS  19128.80684030  .00001558  00000-0  38199-3 0  9994
2 34986  86.3851 346.2635 0029638  55.2058 305.1930 14.51571641528006
IRIDIUM 33 DEB
1 34987U 97051NT  19128.39516937  .00002177  00000-0  28824-3 0  9991
2 34987  86.3362 276.9940 0006545 204.7506 155.3402 14.79442144542733
COSMOS 2251 DEB
1 34989U 93036AFM 19128.40908965  .00000653  00000-0  15887-3 0  9992
2 34989  74.0227 223.2483 0030321 237.6015 122.2214 14.54596143527936
COSMOS 2251 DEB
1 34990U 93036AFN 19127.35668916  .00000181  00000-0  70297-4 0  9999
2 34990  74.0487  12.0942 0017524 311.9887  47.9772 14.36760512528029
COSMOS 2251 DEB
1 34991U 93036AFP 19125.60849573 +.00000891 +00000-0 +19348-3 0  9993
2 34991 074.0428 226.7262 0011871 235.3688 124.6359 14.59593495531343
COSMOS 2251 DEB
1 34993U 93036AFR 19128.80853975  .00003161  00000-0  57008-3 0  9999
2 34993  74.0148 264.3876 0032801 175.8811 184.2635 14.66595397531503
COSMOS 2251 DEB
1 34995U 93036AFT 19127.77186005  .00001498  00000-0  30934-3 0  9999
2 34995  73.8327 162.8722 0043090 156.1307 204.1869 14.60790883531015
COSMOS 2251 DEB
1 34997U 93036AFV 19129.17461209  .00000496  00000-0  19520-3 0  9994
2 34997  73.8883  71.6916 0121754 176.7498 183.4470 14.27883910524015
COSMOS 2251 DEB
1 34998U 93036AFW 19128.55063907  .00000198  00000-0  70352-4 0  9999
2 34998  74.0141 321.4770 0023209 323.7195  67.4319 14.40672006527332
COSMOS 2251 DEB
1 35000U 93036AFY 19127.56492665 +.00000541 +00000-0 +12179-3 0  9995
2 35000 074.0409 203.9658 0076461 174.6857 185.5137 14.57163118530565
MERIDIAN 2
1 35008U 09029A   19128.25245503  .00000146  00000-0  17514-3 0  9995
2 35008  63.4543 283.1493 7241407 249.6637  23.9879  2.24542077 81555
FREGAT R/B
1 35009U 09029B   19124.33174695  .00000172  00000-0 -10685-4 0  9997
2 35009  63.4430 235.3344 7151419 250.5172  24.5506  2.34609295 84579
COSMOS 2251 DEB
1 35012U 93036AFZ 19128.06788182  .00000045  00000-0  21312-4 0  9995
2 35012  74.0199 277.8693 0084751 282.8959  76.2741 14.43049589527988
COSMOS 2251 DEB
1 35014U 93036AGB 19126.84526066  .00000500  00000-0  14515-3 0  9994
2 35014  74.0082 287.0171 0012977 297.0522  62.9312 14.46875257530735
COSMOS 2251 DEB
1 35015U 93036AGC 19129.04442194  .00000330  00000-0  12104-3 0  9992
2 35015  73.9551  14.9586 0089511  59.3696   6.2596 14.34436911526716
COSMOS 2251 DEB
1 35016U 93036AGD 19129.16182581  .00000148  00000-0  62274-4 0  9998
2 35016  73.9342  34.2207 0121254 107.4642  43.2324 14.29962914523186
COSMOS 2251 DEB
1 35018U 93036AGF 19129.27441605  .00000298  00000-0  27201-3 0  9993
2 35018  73.9825  85.3221 0366975 123.8801 239.7798 13.60145551504491
COSMOS 2251 DEB
1 35019U 93036AGG 19129.36064769  .00001887  00000-0  29447-3 0  9995
2 35019  74.0092 128.0605 0022309 125.6108 234.7147 14.73491976534981
COSMOS 2251 DEB
1 35020U 93036AGH 19128.27450895  .00000043  00000-0  14901-4 0  9998
2 35020  74.0493 114.8443 0096520 130.6896 230.2707 14.58853207536232
COSMOS 2251 DEB
1 35022U 93036AGK 19127.54664772  .00000172  00000-0  49236-4 0  9992
2 35022  74.0274 203.3943 0055499 281.1546  78.3379 14.51840012534657
COSMOS 2251 DEB
1 35023U 93036AGL 19128.54010983  .00000535  00000-0  11955-3 0  9992
2 35023  74.0517 173.4123 0065546 156.4036   3.7365 14.57994414529739
COSMOS 2251 DEB
1 35025U 93036AGN 19127.12417703  .00000157  00000-0  35247-4 0  9999
2 35025  73.9429  49.9068 0100490 156.6249 203.9535 14.62333973533878
COSMOS 2251 DEB
1 35026U 93036AGP 19123.57129839 +.00000027 +00000-0 +13486-4 0  9992
2 35026 074.0473 190.5509 0085966 197.2485 231.8606 14.52180831530751
COSMOS 2251 DEB
1 35028U 93036AGR 19129.40776712  .00000010  00000-0  91938-5 0  9991
2 35028  74.0372 152.1971 0086113 175.2235 246.7880 14.54504928533247
COSMOS 2251 DEB
1 35031U 93036AGU 19128.31933655  .00000064  00000-0  31196-4 0  9993
2 35031  74.0408   7.2114 0019764 331.6430  28.3645 14.35807489526784
COSMOS 2251 DEB
1 35032U 93036AGV 19127.67274397 +.00000400 +00000-0 +12265-3 0  9992
2 35032 073.8567 245.1143 0085575 214.9635 209.7568 14.43146910527948
COSMOS 2251 DEB
1 35033U 93036AGW 19127.88464046  .00000251  00000-0  87108-4 0  9991
2 35033  74.0334 336.6981 0017273 309.1309  50.8310 14.40452770527654
COSMOS 2251 DEB
1 35037U 93036AHA 19128.49754381  .00000707  00000-0  15479-3 0  9994
2 35037  74.0036 165.8994 0045317 201.7808 158.1431 14.59084379532595
COSMOS 2251 DEB
1 35038U 93036AHB 19129.22136639  .00000558  00000-0  29821-3 0  9997
2 35038  74.0809 338.8176 0146350 214.9770 259.3318 14.10117540516337
COSMOS 2251 DEB
1 35039U 93036AHC 19128.56113883  .00002037  00000-0  35443-3 0  9991
2 35039  74.0180 199.9317 0025210 153.8014 206.4438 14.68584898531370
COSMOS 2251 DEB
1 35042U 93036AHF 19129.00940994  .00002163  00000-0  25668-3 0  9994
2 35042  74.0149  19.1103 0029549  77.6197 282.8286 14.84875838537144
COSMOS 2251 DEB
1 35043U 93036AHG 19127.48627059  .00000819  00000-0  28503-3 0  9996
2 35043  73.9717 184.3004 0203698 215.4098 143.3386 14.26130288518566
COSMOS 2251 DEB
1 35045U 93036AHJ 19128.26432010  .00000234  00000-0  16352-3 0  9996
2 35045  73.7183 326.5333 0192625 207.8390 268.8954 13.95766802510507
IRIDIUM 33 DEB
1 35049U 97051NV  19127.54051160  .00001286  00000-0  26423-3 0  9992
2 35049  86.3717 317.5124 0026021 118.9480 241.4344 14.59634388530573
IRIDIUM 33 DEB
1 35050U 97051NW  19128.84842684  .00002208  00000-0  28750-3 0  9997
2 35050  86.3048 274.3473 0027849 187.5337 172.5469 14.79886117533106
IRIDIUM 33 DEB
1 35051U 97051NX  19128.29917911  .00000305  00000-0  94191-4 0  9992
2 35051  86.3246 326.6971 0011211 101.0829 259.1630 14.37964617523729
IRIDIUM 33 DEB
1 35052U 97051NY  19128.84194407  .00000115  00000-0  32996-4 0  9995
2 35052  86.3293 329.5340 0013607  51.4357 308.8056 14.35566341529224
IRIDIUM 33 DEB
1 35054U 97051PA  19128.42956549  .00004380  00000-0  60866-3 0  9998
2 35054  86.3438 298.6322 0013376 149.9934 210.2055 14.77604782534645
COSMOS 2251 DEB
1 35058U 93036AHM 19128.99073243  .00003945  00000-0  27459-3 0  9991
2 35058  74.0057 238.1585 0056241 218.2967 141.4223 15.04560032542038
COSMOS 2251 DEB
1 35059U 93036AHN 19128.12433789  .00001763  00000-0  31881-3 0  9992
2 35059  73.9925 175.3294 0025058 180.0723 210.9748 14.66990647532037
COSMOS 2251 DEB
1 35060U 93036AHP 19127.34037184  .00000147  00000-0  58465-4 0  9999
2 35060  74.0403   5.9681 0019535 323.7218  36.2609 14.36787798526416
COSMOS 2251 DEB
1 35061U 93036AHQ 19127.55465352  .00000297  00000-0  76792-4 0  9994
2 35061  74.0505 203.7328 0052015 214.2052 145.5757 14.53639923535497
COSMOS 2251 DEB
1 35062U 93036AHR 19128.05447141  .00000433  00000-0  24371-3 0  9994
2 35062  74.1022  15.2107 0152428 254.1655 170.4021 14.07738512515262
COSMOS 2251 DEB
1 35065U 93036AHU 19128.89803891  .00000163  00000-0  61331-4 0  9995
2 35065  74.0232 337.2967 0021440 324.6926  35.2807 14.39039991527275
COSMOS 2251 DEB
1 35066U 93036AHV 19127.97186414  .00000818  00000-0  14639-3 0  9994
2 35066  74.0157 127.2023 0028988 178.1502 181.9781 14.68320615534016
COSMOS 2251 DEB
1 35067U 93036AHW 19128.51234591  .00000955  00000-0  18855-3 0  9992
2 35067  73.7576  54.4248 0067238  89.7931 271.0939 14.62586302531375
COSMOS 2251 DEB
1 35071U 93036AJA 19121.84078934 +.00000305 +00000-0 +45383-4 0  9999
2 35071 073.9423 299.3219 0112950 046.2741 314.7716 14.75641222317287
COSMOS 2251 DEB
1 35072U 93036AJB 19119.06916547  .00001542  00000-0  40251-3 0  9994
2 35072  74.0931  30.5376 0052122 263.5164  96.0061 14.49516455527297
COSMOS 2251 DEB
1 35073U 93036AJC 19127.79429667 +.00000658 +00000-0 +17304-3 0  9996
2 35073 074.0210 263.5328 0038220 250.0163 109.6880 14.50715695322726
COSMOS 2251 DEB
1 35076U 93036AJF 19122.21259614 +.00000568 +00000-0 +10583-3 0  9996
2 35076 073.9707 081.1473 0070599 151.6668 208.8370 14.65975328269121
IRIDIUM 33 DEB
1 35077U 97051PC  19128.08301616  .00004615  00000-0  36785-3 0  9998
2 35077  86.2694 251.4886 0045920  83.1295 277.5157 14.99241141533923
IRIDIUM 33 DEB
1 35079U 97051PE  19127.13574151  .00000040  00000-0  10193-4 0  9995
2 35079  86.4327  78.5343 0132933 301.9668  56.8652 14.18670947518463
IRIDIUM 33 DEB
1 35080U 97051PF  19128.42200949  .00001780  00000-0  79854-3 0  9991
2 35080  86.2409  15.4305 0185910  33.0442 328.2196 14.13193113517219
FENGYUN 1C DEB
1 35089U 99025DJR 19127.37709538 -.00000112  00000-0 -35952-4 0  9996
2 35089  98.7593 175.9950 0030932 136.9786 223.3814 14.14171197561697
